{
  "norad_id": 45440,
  "name": "ONEWEB-0037",
  "history": [
    {
      "epoch": "2026-03-28T22:13:03.857376",
      "apogee_km": 1219.044738353051,
      "perigee_km": 1216.3178395873101,
      "latitude_deg": -24.730982964249872,
      "longitude_deg": -107.12904735980555,
      "semi_major_axis_km": 7595.81828897018,
      "eccentricity": 0.0001795,
      "inclination_deg": 87.8913,
      "raan_deg": 36.9872,
      "arg_perigee_deg": 77.6293,
      "mean_anomaly_deg": 282.5036,
      "mean_motion_rev_day": 13.1141731
    }
  ]
}