{"fetched_at":"2026-03-30T06:02:59Z","count":15439,"tles":[{"name":"ONEWEB-0037","line1":"1 45440U 20020S   26087.92573909  .00000531  00000+0  14613-2 0  9993","line2":"2 45440  87.8913  36.9872 0001795  77.6293 282.5036 13.11417310292175","category":"Other"}]}